{
  "type": "FeatureCollection",
  "features": [
    {
      "type": "Feature",
      "properties": {
        "norad_id": 66537,
        "name": "STARLINK-35582",
        "group": "last-30-days",
        "lat": 42.834006876610864,
        "lon": -175.51450348600054,
        "alt_km": 347.02890873951947,
        "timestamp": "2025-12-04T21:36:14.652695+00:00",
        "meta_object_name": "STARLINK-35582",
        "meta_object_id": "2025-265X",
        "meta_epoch": "2025-12-04T14:00:01.000224",
        "meta_mean_motion": 15.73467858,
        "meta_eccentricity": 0.00014134,
        "meta_inclination": 42.9998,
        "meta_ra_of_asc_node": 102.1686,
        "meta_arg_of_pericenter": 287.8912,
        "meta_mean_anomaly": 161.8091,
        "meta_ephemeris_type": 0,
        "meta_classification_type": "U",
        "meta_norad_cat_id": 66537,
        "meta_element_set_no": 999,
        "meta_rev_at_epoch": 368,
        "meta_bstar": -0.015114831,
        "meta_mean_motion_dot": -0.01886618,
        "meta_mean_motion_ddot": 0,
        "tle_line1": "1 66537U 25265X   25338.58334491 -.01886618  00000+0 -15115-1 0  9998",
        "tle_line2": "2 66537  42.9998 102.1686 0001413 287.8912 161.8091 15.73467858  3687"
      },
      "geometry": {
        "type": "Point",
        "coordinates": [
          -175.51450348600054,
          42.834006876610864
        ]
      }
    },
    {
      "type": "Feature",
      "properties": {
        "norad_id": 66538,
        "name": "STARLINK-35577",
        "group": "last-30-days",
        "lat": 42.93579012771928,
        "lon": -172.90171374569874,
        "alt_km": 347.03525852670646,
        "timestamp": "2025-12-04T21:36:14.652705+00:00",
        "meta_object_name": "STARLINK-35577",
        "meta_object_id": "2025-265Y",
        "meta_epoch": "2025-12-04T14:00:01.000224",
        "meta_mean_motion": 15.73441395,
        "meta_eccentricity": 0.00014089,
        "meta_inclination": 42.9998,
        "meta_ra_of_asc_node": 102.1637,
        "meta_arg_of_pericenter": 288.3137,
        "meta_mean_anomaly": 163.323,
        "meta_ephemeris_type": 0,
        "meta_classification_type": "U",
        "meta_norad_cat_id": 66538,
        "meta_element_set_no": 999,
        "meta_rev_at_epoch": 368,
        "meta_bstar": -0.014885912,
        "meta_mean_motion_dot": -0.01859963,
        "meta_mean_motion_ddot": 0,
        "tle_line1": "1 66538U 25265Y   25338.58334491 -.01859963  00000+0 -14886-1 0  9996",
        "tle_line2": "2 66538  42.9998 102.1637 0001408 288.3137 163.3230 15.73441395  3683"
      },
      "geometry": {
        "type": "Point",
        "coordinates": [
          -172.90171374569874,
          42.93579012771928
        ]
      }
    },
    {
      "type": "Feature",
      "properties": {
        "norad_id": 66539,
        "name": "STARLINK-35697",
        "group": "last-30-days",
        "lat": 42.97785445329652,
        "lon": -170.2878935895062,
        "alt_km": 346.8545338246249,
        "timestamp": "2025-12-04T21:36:14.652714+00:00",
        "meta_object_name": "STARLINK-35697",
        "meta_object_id": "2025-265Z",
        "meta_epoch": "2025-12-04T14:00:01.000224",
        "meta_mean_motion": 15.73436397,
        "meta_eccentricity": 0.00010545,
        "meta_inclination": 42.9999,
        "meta_ra_of_asc_node": 102.1582,
        "meta_arg_of_pericenter": 282.7654,
        "meta_mean_anomaly": 170.7933,
        "meta_ephemeris_type": 0,
        "meta_classification_type": "U",
        "meta_norad_cat_id": 66539,
        "meta_element_set_no": 999,
        "meta_rev_at_epoch": 368,
        "meta_bstar": -0.014847626,
        "meta_mean_motion_dot": -0.01855163,
        "meta_mean_motion_ddot": 0,
        "tle_line1": "1 66539U 25265Z   25338.58334491 -.01855163  00000+0 -14848-1 0  9993",
        "tle_line2": "2 66539  42.9999 102.1582 0001054 282.7654 170.7933 15.73436397  3681"
      },
      "geometry": {
        "type": "Point",
        "coordinates": [
          -170.2878935895062,
          42.97785445329652
        ]
      }
    },
    {
      "type": "Feature",
      "properties": {
        "norad_id": 66540,
        "name": "STARLINK-35818",
        "group": "last-30-days",
        "lat": 42.95963237595305,
        "lon": -167.6653931102828,
        "alt_km": 347.1143306009344,
        "timestamp": "2025-12-04T21:36:14.652724+00:00",
        "meta_object_name": "STARLINK-35818",
        "meta_object_id": "2025-265AA",
        "meta_epoch": "2025-12-04T14:00:01.000224",
        "meta_mean_motion": 15.73443512,
        "meta_eccentricity": 0.00015398,
        "meta_inclination": 42.9996,
        "meta_ra_of_asc_node": 102.1537,
        "meta_arg_of_pericenter": 291.9873,
        "meta_mean_anomaly": 163.4819,
        "meta_ephemeris_type": 0,
        "meta_classification_type": "U",
        "meta_norad_cat_id": 66540,
        "meta_element_set_no": 999,
        "meta_rev_at_epoch": 368,
        "meta_bstar": -0.014911929,
        "meta_mean_motion_dot": -0.01863046,
        "meta_mean_motion_ddot": 0,
        "tle_line1": "1 66540U 25265AA  25338.58334491 -.01863046  00000+0 -14912-1 0  9996",
        "tle_line2": "2 66540  42.9996 102.1537 0001539 291.9873 163.4819 15.73443512  3682"
      },
      "geometry": {
        "type": "Point",
        "coordinates": [
          -167.6653931102828,
          42.95963237595305
        ]
      }
    },
    {
      "type": "Feature",
      "properties": {
        "norad_id": 66541,
        "name": "STARLINK-35796",
        "group": "last-30-days",
        "lat": 42.882106245450004,
        "lon": -165.0541849552184,
        "alt_km": 347.1016596187483,
        "timestamp": "2025-12-04T21:36:14.652734+00:00",
        "meta_object_name": "STARLINK-35796",
        "meta_object_id": "2025-265AB",
        "meta_epoch": "2025-12-04T14:00:01.000224",
        "meta_mean_motion": 15.73441134,
        "meta_eccentricity": 0.00014529,
        "meta_inclination": 42.9997,
        "meta_ra_of_asc_node": 102.1491,
        "meta_arg_of_pericenter": 289.4935,
        "meta_mean_anomaly": 167.8921,
        "meta_ephemeris_type": 0,
        "meta_classification_type": "U",
        "meta_norad_cat_id": 66541,
        "meta_element_set_no": 999,
        "meta_rev_at_epoch": 368,
        "meta_bstar": -0.014862494,
        "meta_mean_motion_dot": -0.01857442,
        "meta_mean_motion_ddot": 0,
        "tle_line1": "1 66541U 25265AB  25338.58334491 -.01857442  00000+0 -14862-1 0  9994",
        "tle_line2": "2 66541  42.9997 102.1491 0001452 289.4935 167.8921 15.73441134  3688"
      },
      "geometry": {
        "type": "Point",
        "coordinates": [
          -165.0541849552184,
          42.882106245450004
        ]
      }
    },
    {
      "type": "Feature",
      "properties": {
        "norad_id": 66542,
        "name": "STARLINK-35833",
        "group": "last-30-days",
        "lat": 42.745295945677306,
        "lon": -162.45333594135093,
        "alt_km": 346.8596300767749,
        "timestamp": "2025-12-04T21:36:14.652744+00:00",
        "meta_object_name": "STARLINK-35833",
        "meta_object_id": "2025-265AC",
        "meta_epoch": "2025-12-04T14:00:01.000224",
        "meta_mean_motion": 15.73439146,
        "meta_eccentricity": 9.673e-05,
        "meta_inclination": 42.9998,
        "meta_ra_of_asc_node": 102.1444,
        "meta_arg_of_pericenter": 278.1955,
        "meta_mean_anomaly": 181.1114,
        "meta_ephemeris_type": 0,
        "meta_classification_type": "U",
        "meta_norad_cat_id": 66542,
        "meta_element_set_no": 999,
        "meta_rev_at_epoch": 368,
        "meta_bstar": -0.014857716,
        "meta_mean_motion_dot": -0.0185638,
        "meta_mean_motion_ddot": 0,
        "tle_line1": "1 66542U 25265AC  25338.58334491 -.01856380  00000+0 -14858-1 0  9990",
        "tle_line2": "2 66542  42.9998 102.1444 0000967 278.1955 181.1114 15.73439146  3688"
      },
      "geometry": {
        "type": "Point",
        "coordinates": [
          -162.45333594135093,
          42.745295945677306
        ]
      }
    },
    {
      "type": "Feature",
      "properties": {
        "norad_id": 66543,
        "name": "STARLINK-35315",
        "group": "last-30-days",
        "lat": 42.548796460397256,
        "lon": -159.85742988687684,
        "alt_km": 347.09080848855865,
        "timestamp": "2025-12-04T21:36:14.652757+00:00",
        "meta_object_name": "STARLINK-35315",
        "meta_object_id": "2025-265AD",
        "meta_epoch": "2025-12-04T14:00:01.000224",
        "meta_mean_motion": 15.73435402,
        "meta_eccentricity": 0.00013653,
        "meta_inclination": 42.9998,
        "meta_ra_of_asc_node": 102.1392,
        "meta_arg_of_pericenter": 294.1246,
        "meta_mean_anomaly": 167.0991,
        "meta_ephemeris_type": 0,
        "meta_classification_type": "U",
        "meta_norad_cat_id": 66543,
        "meta_element_set_no": 999,
        "meta_rev_at_epoch": 357,
        "meta_bstar": -0.014819382,
        "meta_mean_motion_dot": -0.01852286,
        "meta_mean_motion_ddot": 0,
        "tle_line1": "1 66543U 25265AD  25338.58334491 -.01852286  00000+0 -14819-1 0  9999",
        "tle_line2": "2 66543  42.9998 102.1392 0001365 294.1246 167.0991 15.73435402  3570"
      },
      "geometry": {
        "type": "Point",
        "coordinates": [
          -159.85742988687684,
          42.548796460397256
        ]
      }
    }
  ]
}